SZ-16 MODULE            
1 58198U 23077G   23318.49299707  .00029889  00000+0  32521-3 0  9995
2 58198  41.4838 320.6605 0008399 164.6644 195.4452 15.62741164  2237
TIANHUI 5A              
1 58199U 23168A   23319.46483393  .00000671  00000+0  81242-4 0  9994
2 58199  97.8279 324.4029 0000745 186.5774 173.5433 14.86881119  2155
CZ-6A R/B               
1 58200U 23168B   23318.96514243  .00005394  00000+0  36624-3 0  9990
2 58200  97.8107 324.2548 0077045 344.4505  15.4354 15.04407404  2110
TIANHUI 5B              
1 58201U 23168C   23319.46489519  .00000680  00000+0  82167-4 0  9991
2 58201  97.8276 324.4023 0000670 184.6392 175.4818 14.86879353  2157
CZ-6A DEB               
1 58202U 23168D   23318.52478569  .00007660  00000+0  86265-3 0  9998
2 58202  97.8259 323.4695 0003485 139.1157 221.0321 14.86907617  2011
TJS-10                  
1 58204U 23169A   23318.75752012  .00000028  00000+0  00000+0 0  9994
2 58204   0.0969  82.1882 0002795 245.8547 171.5519  1.00273116    68
CZ-7A R/B               
1 58205U 23169B   23319.30960547  .00409117  91902-5  37180-3 0  9993
2 58205  16.9058 282.0760 7189828 187.7942 147.6001  2.47345084   283
STARLINK-30800          
1 58206U 23170A   23319.58335648 -.00907772  00000+0 -54791-2 0  9995
2 58206  43.0059 118.0844 0001918 276.2040 176.3947 15.79087789  3056
STARLINK-30845          
1 58207U 23170B   23319.58335648 -.00907984  00000+0 -54893-2 0  9994
2 58207  43.0058 118.0815 0001595 270.6186 183.0523 15.79056149  3066
STARLINK-30841          
1 58208U 23170C   23319.58335648 -.00912381  00000+0 -55189-2 0  9991
2 58208  43.0057 118.0796 0001681 266.3729 188.0147 15.79054928  2930
STARLINK-30839          
1 58209U 23170D   23319.58335648 -.00917509  00000+0 -55623-2 0  9992
2 58209  43.0061 118.0753 0001483 264.5783 191.5974 15.79021817  3051
STARLINK-30846          
1 58210U 23170E   23319.58335648 -.00911369  00000+0 -55122-2 0  9996
2 58210  43.0062 118.0779 0001810 275.4855 179.5679 15.79053268  2936
STARLINK-30838          
1 58211U 23170F   23319.58335648 -.00927901  00000+0 -56472-2 0  9995
2 58211  43.0057 118.0697 0001558 268.1882 190.1097 15.78963728  3055
STARLINK-30837          
1 58212U 23170G   23319.58335648 -.00923926  00000+0 -56169-2 0  9992
2 58212  43.0057 118.0718 0001544 272.2167 185.2246 15.78977079  3063
STARLINK-30813          
1 58213U 23170H   23319.58335648 -.00925450  00000+0 -56294-2 0  9996
2 58213  43.0056 118.0680 0001433 268.9491 189.9069 15.78969646  2930
STARLINK-30805          
1 58214U 23170J   23319.58335648 -.00931981  00000+0 -56785-2 0  9998
2 58214  43.0056 118.0655 0001529 267.1967 192.6135 15.78949911  3049
STARLINK-30851          
1 58215U 23170K   23319.58335648 -.00930961  00000+0 -56715-2 0  9999
2 58215  43.0058 118.0638 0001463 271.0037 189.4393 15.78950899  2936
STARLINK-30786          
1 58216U 23170L   23319.58335648 -.00937608  00000+0 -57198-2 0  9991
2 58216  43.0056 118.0614 0001553 262.4024 198.9123 15.78937795  3048
STARLINK-30818          
1 58217U 23170M   23319.16667824 -.00959618  00000+0 -56611-2 0  9994
2 58217  43.0061 120.5990 0001736 275.8842 334.9498 15.79722863  2998
STARLINK-30794          
1 58218U 23170N   23319.58335648 -.00949254  00000+0 -58170-2 0  9994
2 58218  43.0052 118.0556 0001715 270.6455 192.8733 15.78868628  3059
STARLINK-30835          
1 58219U 23170P   23319.58335648 -.00950322  00000+0 -58319-2 0  9998
2 58219  43.0056 118.0534 0001390 271.1086 193.3620 15.78843482  2933
STARLINK-30792          
1 58220U 23170Q   23319.58335648 -.00953754  00000+0 -58588-2 0  9990
2 58220  43.0051 118.0509 0001473 270.6776 194.6256 15.78830009  3058
STARLINK-30836          
1 58221U 23170R   23319.58335648 -.00962115  00000+0 -59224-2 0  9990
2 58221  43.0050 118.0482 0001614 267.2815 199.0144 15.78805632  2936
STARLINK-30855          
1 58222U 23170S   23319.16667824 -.00980701  00000+0 -58284-2 0  9995
2 58222  43.0053 120.5858 0001618 267.1563 348.6831 15.79619640  2879
STARLINK-30840          
1 58223U 23170T   23319.58335648 -.00969625  00000+0 -59861-2 0  9992
2 58223  43.0050 118.0439 0001533 263.1215 205.0053 15.78762663  2932
STARLINK-30875          
1 58224U 23170U   23319.16667824 -.00986743  00000+0 -58715-2 0  9998
2 58224  43.0058 120.5820 0001749 271.6118 345.7816 15.79607685  2930
STARLINK-30872          
1 58225U 23170V   23319.16667824 -.00998639  00000+0 -59610-2 0  9991
2 58225  43.0053 120.5784 0001915 271.4791 347.1914 15.79569263  1792
STARLINK-30865          
1 58226U 23170W   23319.50002315 -.00970142  00000+0 -59713-2 0  9991
2 58226  43.0052 118.5417 0001577 258.3522  99.3526 15.78829333  2929
STARLINK-30874          
1 58227U 23170X   23319.16667824 -.00993479  00000+0 -59245-2 0  9994
2 58227  43.0054 120.5776 0001584 268.4747 350.6808 15.79580049  2871
STARLINK-30871          
1 58228U 23170Y   23319.50002315 -.00975777  00000+0 -60165-2 0  9995
2 58228  43.0057 118.5398 0001535 259.8365  98.8053 15.78806666  1842
STARLINK A              
1 58230U 23171A   23319.50002315 -.00959453  00000+0 -43120-2 0  9994
2 58230  43.0052 215.5211 0001604 272.2732 269.9972 15.85444964  2407
STARLINK B              
1 58231U 23171B   23319.50002315 -.00959039  00000+0 -43079-2 0  9998
2 58231  43.0049 215.5195 0001499 275.5185 267.4077 15.85455675  2405
STARLINK C              
1 58232U 23171C   23319.50002315 -.00967314  00000+0 -43450-2 0  9997
2 58232  43.0048 215.5162 0001529 260.2971 283.8377 15.85475678  2340
STARLINK D              
1 58233U 23171D   23319.50002315 -.00981283  00000+0 -44064-2 0  9991
2 58233  43.0049 215.5114 0001828 273.9978 272.1069 15.85512472  2342
STARLINK E              
1 58234U 23171E   23319.50002315 -.00971362  00000+0 -43621-2 0  9997
2 58234  43.0048 215.5134 0001308 270.9625 274.3062 15.85492836  2408
STARLINK F              
1 58235U 23171F   23319.50002315 -.00984965  00000+0 -44213-2 0  9999
2 58235  43.0049 215.5090 0001875 272.3369 274.6543 15.85528393  2349
STARLINK G              
1 58236U 23171G   23319.50002315 -.00991491  00000+0 -44506-2 0  9997
2 58236  43.0049 215.5062 0001666 275.4810 272.6049 15.85546499  2405
STARLINK H              
1 58237U 23171H   23319.50002315 -.00992432  00000+0 -44522-2 0  9992
2 58237  43.0051 215.5049 0001823 274.4323 274.0894 15.85559057  2405
STARLINK J              
1 58238U 23171J   23319.50002315 -.00992700  00000+0 -44508-2 0  9995
2 58238  43.0047 215.5036 0001775 253.1900 295.9249 15.85572130  2401
STARLINK K              
1 58239U 23171K   23319.50002315 -.00999822  00000+0 -44830-2 0  9996
2 58239  43.0048 215.5013 0001580 267.9941 282.0209 15.85590367  2405
STARLINK L              
1 58240U 23171L   23319.50002315 -.01014823  00000+0 -45469-2 0  9997
2 58240  43.0045 215.4938 0001784 273.9994 278.8941 15.85639624  2406
STARLINK M              
1 58241U 23171M   23319.50002315 -.01001355  00000+0 -44873-2 0  9992
2 58241  43.0046 215.4998 0001718 277.5677 272.8507 15.85604239  2405
STARLINK N              
1 58242U 23171N   23319.16667824 -.00872321  00000+0 -37436-2 0  9992
2 58242  43.0044 217.5537 0000138 229.9511 216.4351 15.86188806  2352
STARLINK P              
1 58243U 23171P   23319.50002315 -.01023141  00000+0 -45826-2 0  9990
2 58243  43.0044 215.4874 0001463 270.7175 284.6406 15.85670452  2299
STARLINK Q              
1 58244U 23171Q   23319.50002315 -.01022158  00000+0 -45804-2 0  9994
2 58244  43.0044 215.4902 0001536 275.7280 278.5082 15.85657460  2415
STARLINK R              
1 58245U 23171R   23319.50002315 -.01034362  00000+0 -46339-2 0  9999
2 58245  43.0042 215.4849 0001717 273.5531 282.8274 15.85690445  2400
STARLINK S              
1 58246U 23171S   23319.50002315 -.01045982  00000+0 -46849-2 0  9996
2 58246  43.0043 215.4802 0001741 276.2001 281.9743 15.85723197  2402
STARLINK T              
1 58247U 23171T   23319.50002315 -.01038677  00000+0 -46525-2 0  9991
2 58247  43.0042 215.4823 0001568 273.7331 283.6156 15.85705898  2247
STARLINK U              
1 58248U 23171U   23319.50002315 -.01049323  00000+0 -46980-2 0  9997
2 58248  43.0044 215.4772 0001944 263.5119 295.8940 15.85737036  2405
STARLINK V              
1 58249U 23171V   23319.50002315 -.01046193  00000+0 -46804-2 0  9995
2 58249  43.0042 215.4754 0001911 261.6705 298.4502 15.85745319  2404
STARLINK W              
1 58250U 23171W   23319.50002315 -.01033645  00000+0 -42044-2 0  9997
2 58250  43.0045 215.3966 0001875 268.9072 322.2677 15.87630819  2408
STARLINK X              
1 58251U 23171X   23319.50002315 -.01188811  41756-3 -33240-2 0  9999
2 58251  43.0043 215.3163 0001788 266.9848 356.1828 15.92755562  2344
STARLINK Y              
1 58252U 23171Y   23319.50002315 -.01060596  00000+0 -47454-2 0  9994
2 58252  43.0046 215.4717 0001733 272.8575 288.8380 15.85780360  2404
CHINASAT 6E (ZX 6E)     
1 58253U 23172A   23313.91939772 -.00000492  00000+0  00000+0 0  9991
2 58253  28.3937 216.1956 7294480 179.5634 352.7472  2.28280314    28
CZ-3B R/B               
1 58254U 23172B   23313.70635841 -.00001616  16894-5  00000+0 0  9992
2 58254  28.3963 216.2181 7231115 178.7397 185.5310  2.38221370    01
DRAGON CRS-29           
1 58255U 23173A   23318.48427184  .00013135  00000+0  24348-3 0  9992
2 58255  51.6410 304.0884 0001089 292.1795  67.9078 15.49315148425092
2023-175A               
1 58346U 23175A   23318.72424331  .00000050  00000+0  00000+0 0  9990
2 58346   9.0027 198.1793 1969905 185.8407 171.4939  7.34375574   139
2023-175B               
1 58347U 23175B   23318.85985001  .00000080  00000+0  13058-1 0  9993
2 58347   9.0123 197.9212 1971254 186.3101 170.8022  7.34494353   141
FALCON 9 R/B            
1 58348U 23175C   23319.40237469  .00000603  00000+0  24364+0 0  9995
2 58348   9.0064 197.1011 1972169 188.0190 168.3117  7.34851054   184
